# From MPEC 2022-S20
C/1995 O1 (Hale-Bopp),e,89.4870,282.2598,130.2298,177.5075,0.0004168,0.99497805,0.0000,03/30.6891/1997,2000,g -2.0,4.0
# From NK 1615
P/1996 R2 (Lagerkvist),e,2.5997,40.0575,333.4344,3.773765,0.1344441,0.31452179,253.7431,04/16.0/2024,2000,g 11.5,4.0
# From MPC 75703
P/1998 VS24 (LINEAR),e,5.0282,159.0651,244.7445,4.522611,0.1024756,0.24365717,233.0352,04/16.0/2024,2000,g 13.0,2.0
# From NK 731
P/1999 RO28 (LONEOS),e,7.5668,137.8668,231.3281,3.425927,0.1554307,0.67238242,272.6177,04/16.0/2024,2000,g 20.0,2.0
# From MPC 75704
P/1999 XN120 (Catalina),e,5.0296,285.2589,161.6790,4.179283,0.1153590,0.21086261,289.0133,04/16.0/2024,2000,g 13.5,2.0
# From NK 744
P/2000 R2 (LINEAR),e,11.6815,160.2893,176.5910,3.468469,0.1525799,0.53087327,269.1830,04/16.0/2024,2000,g 18.0,4.0
# From MPC 43019
P/2001 H5 (NEAT),e,8.3691,328.6435,224.6520,6.095534,0.0654917,0.59845156,203.8824,04/16.0/2024,2000,g 12.0,4.0
# From MPEC 2023-UR6
P/2002 EJ57 (LINEAR),e,4.9835,330.2583,167.2555,6.457773,0.0600593,0.59321126,127.8489,04/16.0/2024,2000,g 12.5,4.0
# From MPC 75007
C/2002 VQ94 (LINEAR),e,70.7064,35.1573,99.8427,185.2478,0.0003909,0.96343922,2.5973,04/16.0/2024,2000,g  9.5,2.0
# From MPC 50354
P/2003 F2 (NEAT),e,11.6450,358.9411,192.3452,6.503819,0.0594226,0.54159273,96.0259,04/16.0/2024,2000,g 16.5,2.0
# From MPC 50139
P/2003 QX29 (NEAT),e,11.3983,264.5345,37.6711,8.005657,0.0435120,0.47178940,339.1964,04/16.0/2024,2000,g  8.5,4.0
# From MPC105235
P/2003 T12 (SOHO),e,11.0250,174.5784,219.7843,2.584267,0.2372455,0.77026990,341.3154,04/16.0/2024,2000,g 17.0,4.0
# From MPEC 2022-YN2
P/2004 FY140 (LINEAR),e,2.1620,327.2694,254.1158,4.970120,0.0889516,0.19210523,267.3228,04/16.0/2024,2000,g 12.5,2.0
# From MPC 53304
P/2004 R3 (LINEAR-NEAT),e,12.7926,305.1263,37.5170,4.753308,0.0951065,0.25448058,89.5075,04/16.0/2024,2000,g 14.5,4.0
# From MPC 75705
P/2004 V5 (LINEAR-Hill),e,19.3481,47.7389,87.3744,8.016134,0.0434267,0.44695313,307.4629,04/16.0/2024,2000,g  8.0,4.0
# From MPC 75705
P/2004 V5-B (LINEAR-Hill),e,19.3481,47.7393,87.3777,8.016519,0.0434236,0.44697656,307.4248,04/16.0/2024,2000,g  8.0,4.0
# From MPC 54164
P/2005 E1 (Tubbiolo),e,4.2617,335.5228,193.8708,7.061997,0.0525186,0.37656411,10.5681,04/16.0/2024,2000,g 10.0,4.0
# From MPC 79019
P/2005 J1 (McNaught),e,31.7400,268.7993,338.9148,3.573613,0.1458958,0.56907811,294.0876,04/16.0/2024,2000,g 16.5,4.0
# From MPC 74246
P/2005 L1 (McNaught),e,7.6827,135.4682,153.2833,4.005573,0.1229439,0.22499527,108.3034,04/16.0/2024,2000,g  9.5,4.0
# From MPC 75706
P/2005 S2 (Skiff),e,3.1371,161.3553,229.7319,7.992738,0.0436175,0.19887543,284.0177,04/16.0/2024,2000,g  7.5,4.0
# From MPC 75706
P/2005 SB216 (LONEOS),e,24.1099,1.1275,83.2151,7.153949,0.0515093,0.46562244,327.1063,04/16.0/2024,2000,g 12.0,2.0
# From MPC 73461
P/2005 T3 (Read),e,6.2279,27.6507,6.8350,7.585334,0.0471783,0.17538353,319.7937,04/16.0/2024,2000,g  9.0,4.0
# From MPC 73461
P/2005 T4 (SWAN),e,160.2836,25.9364,41.8737,9.354454,0.0344490,0.93016730,232.6943,04/16.0/2024,2000,g 15.0,4.0
# From MPC 75706
P/2005 T5 (Broughton),e,21.3835,57.0687,304.7355,7.268083,0.0503007,0.55229631,338.6358,04/16.0/2024,2000,g 11.0,4.0
# From MPEC 2024-DD5
P/2005 XR132 (Spacewatch),e,14.4756,265.3984,240.7674,3.758547,0.1352614,0.43236405,167.2119,04/16.0/2024,2000,g 16.0,4.0
# From MPC 75707
P/2006 HR30 (Siding Spring),e,31.9215,309.8131,117.4360,7.802744,0.0452203,0.84361413,285.9800,04/16.0/2024,2000,g 11.0,4.0
# From MPC 75707
P/2007 C2 (Catalina),e,8.6122,275.2516,180.1573,7.009562,0.0531090,0.47316441,322.5674,04/16.0/2024,2000,g 10.0,4.0
# From MPC 84315
C/2007 D1 (LINEAR),e,41.5056,171.1502,339.6953,1152,0.0000252,0.99240382,0.0000,06/10.0382/2007,2000,g  3.5,4.0
# From MPEC 2024-GJ3
P/2007 K2 (Gibbs),e,7.6191,188.6009,347.2234,7.325053,0.0497151,0.68533674,309.4438,04/16.0/2024,2000,g 14.0,4.0
# From MPC 60925
P/2007 Q2 (Gilmore),e,10.1991,172.2005,162.8739,5.660849,0.0731782,0.66937101,90.4976,04/16.0/2024,2000,g 16.0,4.0
# From MPC 73462
P/2007 S1 (Zhao),e,5.9647,141.3323,245.2199,3.817183,0.1321569,0.33839009,73.6501,04/16.0/2024,2000,g 13.0,4.0
# From MPEC 2024-GJ3
C/2007 S2 (Lemmon),e,16.8964,296.1147,210.1883,12.50323,0.0222931,0.55573876,127.3165,04/16.0/2024,2000,g  6.5,4.0
# From MPC 61994
P/2007 T2 (Kowalski),e,9.7508,3.3854,359.6718,3.043965,0.1855858,0.78564427,27.9094,04/16.0/2024,2000,g 18.5,4.0
# From MPEC 2024-GJ3
C/2008 E1 (Catalina),e,34.8680,189.0006,270.2548,10.76725,0.0278963,0.55224561,159.6629,04/16.0/2024,2000,g  7.0,4.0
# From MPC 64114
P/2008 O3 (Boattini),e,32.3291,47.6082,341.1841,8.210191,0.0418962,0.69657950,242.4629,04/16.0/2024,2000,g 13.0,4.0
# From MPC 75710
P/2008 Y3 (McNaught),e,38.7786,262.8385,238.0539,8.043392,0.0432061,0.44715642,241.9763,04/16.0/2024,2000,g  8.5,4.0
# From MPC 75710
P/2009 B1 (Boattini),e,22.2543,297.1050,128.9455,6.732290,0.0564235,0.63605869,314.5620,04/16.0/2024,2000,g 13.0,4.0
# From MPC 66466
C/2009 G1 (STEREO),e,108.2632,120.7596,175.5436,468.2903,0.0000973,0.99756114,0.0000,04/18.1076/2009,2000,g  9.0,4.0
# From MPC 75710
P/2009 O3 (Hill),e,16.2718,183.7124,154.4719,7.768150,0.0455227,0.68693458,247.3666,04/16.0/2024,2000,g 12.5,4.0
# From MPC 68902
P/2009 Q5 (McNaught),e,40.9748,160.2622,209.1696,7.425846,0.0487063,0.60974703,259.1225,04/16.0/2024,2000,g 10.0,4.0
# From MPC112389
P/2009 T2 (La Sagra),e,27.6146,216.3556,215.9256,7.712461,0.0460166,0.76730948,239.8300,04/16.0/2024,2000,g 14.0,4.0
# From MPC105235
P/2009 WX51 (Catalina),e,9.5940,31.5429,118.2648,3.082625,0.1821055,0.73941579,227.1990,04/16.0/2024,2000,g 19.0,2.0
# From MPC 74247
P/2009 Y2 (Kowalski),e,29.9725,262.0838,172.1712,6.544606,0.0588679,0.63738195,303.5068,04/16.0/2024,2000,g 13.0,4.0
# From MPC 75711
P/2010 A3 (Hill),e,14.8189,63.6445,42.2318,6.095818,0.0654871,0.73414118,338.4232,04/16.0/2024,2000,g 14.0,4.0
# From MPC 75008
P/2010 C1 (Scotti),e,9.1171,141.6300,3.0999,7.118853,0.0518906,0.26256920,275.7236,04/16.0/2024,2000,g  9.5,4.0
# From MPC 75008
P/2010 D2 (WISE),e,57.1203,319.8728,119.9436,6.721362,0.0565611,0.45175103,293.3071,04/16.0/2024,2000,g 16.0,4.0
# From MPC 75009
P/2010 E2 (Jarnac),e,15.4007,177.8011,8.2525,8.638596,0.0388186,0.71994810,199.6669,04/16.0/2024,2000,g 14.0,4.0
# From MPC 72851
P/2010 H2 (Vales),e,14.2796,64.1875,128.0540,3.831961,0.1313931,0.19726620,316.9428,04/16.0/2024,2000,g  6.0,4.0
# From MPC 70361
P/2010 H3 (SOHO),e,23.1468,77.1815,26.0631,3.035941,0.1863220,0.98551581,0.0000,05/25.1444/2026,2000,g 20.0,2.0
# From MPEC 2024-GJ3
P/2010 H4 (Scotti),e,2.3178,44.7348,179.1984,6.611702,0.0579741,0.26646022,294.3719,04/16.0/2024,2000,g 10.5,4.0
# From MPC 74637
P/2010 H5 (Scotti),e,14.0572,24.5887,174.5720,7.175554,0.0512768,0.15339687,264.5155,04/16.0/2024,2000,g 13.0,2.0
# From MPC 98558
P/2010 J3 (McMillan),e,13.2381,106.5205,157.4908,8.985835,0.0365903,0.72442329,182.6606,04/16.0/2024,2000,g 11.0,4.0
# From MPC 84315
P/2010 JC81 (WISE),e,38.8131,30.8759,12.4634,8.103191,0.0427287,0.77830608,202.2338,04/16.0/2024,2000,g  9.0,4.0
# From MPC 74248
P/2010 T2 (PANSTARRS),e,7.8926,57.9556,351.4814,5.645860,0.0734698,0.33061986,3.1564,04/16.0/2024,2000,g 11.5,4.0
# From MPC 82316
P/2010 U1 (Boattini),e,8.2261,280.8049,86.4234,6.492549,0.0595774,0.24896361,307.8343,04/16.0/2024,2000,g  9.5,4.0
# From MPEC 2023-J95
C/2010 U3 (Boattini),e,55.5659,42.9877,88.0469,5061,0.0000027,0.99833279,0.0000,02/26.4423/2019,2000,g  1.0,4.0
# From MPC 79021
P/2010 UH55 (Spacewatch),e,8.0369,232.8839,225.1940,6.652266,0.0574447,0.56446663,273.3520,04/16.0/2024,2000,g 11.0,4.0
# From MPC 75009
P/2010 WK (LINEAR),e,11.4021,11.3439,40.9938,5.764507,0.0712133,0.69082692,353.1422,04/16.0/2024,2000,g 14.5,2.0
# From MPC 84021
P/2011 C2 (Gibbs),e,10.8893,11.9538,160.3272,7.412437,0.0488385,0.27000248,220.5524,04/16.0/2024,2000,g  9.0,4.0
# From MPC 79866
P/2011 FR143 (Lemmon),e,15.9698,190.8677,349.7856,6.872403,0.0547068,0.45174068,263.9783,04/16.0/2024,2000,g 14.0,2.0
# From MPC 82317
P/2011 JB15 (Spacewatch-Boattini),e,19.1317,153.5695,110.8983,7.375272,0.0492081,0.31474621,220.7430,04/16.0/2024,2000,g  9.0,4.0
# From MPC 87913
P/2011 N1 (ASH),e,35.7837,77.6283,330.4299,6.238642,0.0632512,0.54556278,274.3908,04/16.0/2024,2000,g 11.5,4.0
# From MPEC 2022-ED3
P/2011 P1 (McNaught),e,5.6561,4.2846,349.1904,7.458557,0.0483862,0.32713131,241.9980,04/16.0/2024,2000,g  9.0,4.0
# From MPEC 2022-HC2
P/2011 S1 (Gibbs),e,2.6890,218.8958,192.7092,8.588475,0.0391589,0.20167561,138.0389,04/16.0/2024,2000,g  8.0,4.0
# From MPC 79022
P/2011 UA134 (Spacewatch-PANSTARRS),e,10.4406,40.3993,32.4218,5.610967,0.0741562,0.63015310,337.2491,04/16.0/2024,2000,g 17.5,4.0
# From MPEC 2023-UR6
P/2011 V1 (Boattini),e,7.3842,46.4836,269.6702,3.855550,0.1301891,0.54861788,263.9899,04/16.0/2024,2000,g 15.5,4.0
# From MPC 82718
P/2011 W1 (PANSTARRS),e,3.7171,161.8276,282.8789,4.671208,0.0976248,0.28855003,77.8299,04/16.0/2024,2000,g 11.5,4.0
# From MPC 79342
P/2011 Y2 (Boattini),e,6.3866,309.3324,132.0053,6.233529,0.0633291,0.71104368,279.9411,04/16.0/2024,2000,g 15.0,4.0
# From MPEC 2022-K19
P/2012 B1 (PANSTARRS),e,7.6088,36.2155,162.1085,6.535746,0.0589877,0.40962031,232.7844,04/16.0/2024,2000,g  9.0,4.0
# From MPC 78590
P/2012 C3 (PANSTARRS),e,9.0920,135.3677,344.9542,9.748681,0.0323806,0.63011148,359.9758,10/06.0/2011,2000,g 13.0,4.0
# From MPC 84931
P/2012 F2 (PANSTARRS),e,14.6985,226.9580,33.2398,6.342429,0.0617050,0.54021759,248.9406,04/16.0/2024,2000,g 12.0,4.0
# From MPEC 2022-ED3
P/2012 G1 (PANSTARRS),e,12.1684,283.2522,266.0675,4.164185,0.1159869,0.32905864,150.1828,04/16.0/2024,2000,g 15.0,4.0
# From MPC 80898
P/2012 K3 (Gibbs),e,13.1845,125.8155,172.2028,3.630564,0.1424764,0.42184253,243.0269,04/16.0/2024,2000,g 15.0,4.0
# From MPC 88326
P/2012 NJ (La Sagra),e,84.4457,315.6455,338.4062,8.467724,0.0399995,0.84643449,172.9242,04/16.0/2024,2000,g 14.5,4.0
# From MPC 81470
P/2012 O1 (McNaught),e,7.4277,91.9479,238.3025,3.542481,0.1478233,0.59377013,276.6215,04/16.0/2024,2000,g 17.5,4.0
